{
  "type": "FeatureCollection",
  "features": [
    {
      "type": "Feature",
      "properties": {
        "timestamp": "2026-05-19T18:08:31.574",
        "raw_image": "raw/uav_raw_20260519_180831_574.jpg",
        "output_image": "outputs/uav_output_20260519_180831_574.jpg",
        "class": "captured_area",
        "altitude": 450.0,
        "heading": 30.0,
        "detection_count": 0
      },
      "geometry": {
        "type": "Polygon",
        "coordinates": [
          [
            [
              73.04634138623044,
              33.68578929174221
            ],
            [
              73.0497746137695,
              33.68578929174221
            ],
            [
              73.0497746137695,
              33.683646694906614
            ],
            [
              73.04634138623044,
              33.683646694906614
            ],
            [
              73.04634138623044,
              33.68578929174221
            ]
          ]
        ]
      }
    },
    {
      "type": "Feature",
      "properties": {
        "timestamp": "2026-05-19T18:09:50.149",
        "raw_image": "raw/uav_raw_20260519_180950_149.jpg",
        "output_image": "outputs/uav_output_20260519_180950_149.jpg",
        "class": "captured_area",
        "altitude": 450.0,
        "heading": 30.0,
        "detection_count": 1
      },
      "geometry": {
        "type": "Polygon",
        "coordinates": [
          [
            [
              73.04634138623044,
              33.68578929174221
            ],
            [
              73.0497746137695,
              33.68578929174221
            ],
            [
              73.0497746137695,
              33.683646694906614
            ],
            [
              73.04634138623044,
              33.683646694906614
            ],
            [
              73.04634138623044,
              33.68578929174221
            ]
          ]
        ]
      }
    },
    {
      "type": "Feature",
      "properties": {
        "timestamp": "2026-05-19T18:33:17.772",
        "raw_image": "raw/uav_raw_20260519_183317_772.jpg",
        "output_image": "outputs/uav_output_20260519_183317_772.jpg",
        "class": "captured_area",
        "altitude": 450.0,
        "heading": 358.3744999999992,
        "detection_count": 0
      },
      "geometry": {
        "type": "Polygon",
        "coordinates": [
          [
            [
              73.04632859314438,
              33.689603725944174
            ],
            [
              73.05115656937119,
              33.689603725944174
            ],
            [
              73.05115656937119,
              33.686836317784895
            ],
            [
              73.04632859314438,
              33.686836317784895
            ],
            [
              73.04632859314438,
              33.689603725944174
            ]
          ]
        ]
      }
    },
    {
      "type": "Feature",
      "properties": {
        "timestamp": "2026-05-19T18:33:29.340",
        "raw_image": "raw/uav_raw_20260519_183329_340.jpg",
        "output_image": "outputs/uav_output_20260519_183329_340.jpg",
        "class": "captured_area",
        "altitude": 450.0,
        "heading": 30.0,
        "detection_count": 14
      },
      "geometry": {
        "type": "Polygon",
        "coordinates": [
          [
            [
              73.04564401188657,
              33.68610174931874
            ],
            [
              73.05047198811337,
              33.68610174931874
            ],
            [
              73.05047198811337,
              33.68333422840614
            ],
            [
              73.04564401188657,
              33.68333422840614
            ],
            [
              73.04564401188657,
              33.68610174931874
            ]
          ]
        ]
      }
    },
    {
      "type": "Feature",
      "properties": {
        "timestamp": "2026-05-19T18:34:16.226",
        "raw_image": "raw/uav_raw_20260519_183416_226.jpg",
        "output_image": "outputs/uav_output_20260519_183416_226.jpg",
        "class": "captured_area",
        "altitude": 328.4192000000015,
        "heading": 343.782500000003,
        "detection_count": 0
      },
      "geometry": {
        "type": "Polygon",
        "coordinates": [
          [
            [
              73.04603414915871,
              33.689555191664454
            ],
            [
              73.04955857180428,
              33.689555191664454
            ],
            [
              73.04955857180428,
              33.68753766950689
            ],
            [
              73.04603414915871,
              33.68753766950689
            ],
            [
              73.04603414915871,
              33.689555191664454
            ]
          ]
        ]
      }
    },
    {
      "type": "Feature",
      "properties": {
        "timestamp": "2026-05-19T18:35:09.720",
        "raw_image": "raw/uav_raw_20260519_183509_720.jpg",
        "output_image": "outputs/uav_output_20260519_183509_720.jpg",
        "class": "captured_area",
        "altitude": 217.50400000000252,
        "heading": 305.8680000000003,
        "detection_count": 3
      },
      "geometry": {
        "type": "Polygon",
        "coordinates": [
          [
            [
              73.04258089178504,
              33.69081726217205
            ],
            [
              73.04523627870978,
              33.69081726217205
            ],
            [
              73.04523627870978,
              33.689295220202446
            ],
            [
              73.04258089178504,
              33.689295220202446
            ],
            [
              73.04258089178504,
              33.69081726217205
            ]
          ]
        ]
      }
    },
    {
      "type": "Feature",
      "properties": {
        "timestamp": "2026-05-19T18:35:56.642",
        "raw_image": "raw/uav_raw_20260519_183556_642.jpg",
        "output_image": "outputs/uav_output_20260519_183556_642.jpg",
        "class": "captured_area",
        "altitude": 220.70720000000298,
        "heading": 324.905999999997,
        "detection_count": 9
      },
      "geometry": {
        "type": "Polygon",
        "coordinates": [
          [
            [
              73.0419168415724,
              33.69166634953167
            ],
            [
              73.04324453503477,
              33.69166634953167
            ],
            [
              73.04324453503477,
              33.690905339435005
            ],
            [
              73.0419168415724,
              33.690905339435005
            ],
            [
              73.0419168415724,
              33.69166634953167
            ]
          ]
        ]
      }
    },
    {
      "type": "Feature",
      "properties": {
        "timestamp": "2026-05-19T18:36:31.252",
        "raw_image": "raw/uav_raw_20260519_183631_252.jpg",
        "output_image": "outputs/uav_output_20260519_183631_252.jpg",
        "class": "captured_area",
        "altitude": 220.70720000000298,
        "heading": 6.059999999997672,
        "detection_count": 3
      },
      "geometry": {
        "type": "Polygon",
        "coordinates": [
          [
            [
              73.04192546356808,
              33.69242985331525
            ],
            [
              73.04325315703045,
              33.69242985331525
            ],
            [
              73.04325315703045,
              33.69166884997965
            ],
            [
              73.04192546356808,
              33.69166884997965
            ],
            [
              73.04192546356808,
              33.69242985331525
            ]
          ]
        ]
      }
    },
    {
      "type": "Feature",
      "properties": {
        "timestamp": "2026-05-19T18:36:38.865",
        "raw_image": "raw/uav_raw_20260519_183638_865.jpg",
        "output_image": "outputs/uav_output_20260519_183638_865.jpg",
        "class": "captured_area",
        "altitude": 220.70720000000298,
        "heading": 6.059999999997672,
        "detection_count": 4
      },
      "geometry": {
        "type": "Polygon",
        "coordinates": [
          [
            [
              73.04060772205526,
              33.69242509226715
            ],
            [
              73.04193541551763,
              33.69242509226715
            ],
            [
              73.04193541551763,
              33.691664088889375
            ],
            [
              73.04060772205526,
              33.691664088889375
            ],
            [
              73.04060772205526,
              33.69242509226715
            ]
          ]
        ]
      }
    },
    {
      "type": "Feature",
      "properties": {
        "timestamp": "2026-05-19T18:36:42.384",
        "raw_image": "raw/uav_raw_20260519_183642_384.jpg",
        "output_image": "outputs/uav_output_20260519_183642_384.jpg",
        "class": "captured_area",
        "altitude": 220.70720000000298,
        "heading": 6.059999999997672,
        "detection_count": 8
      },
      "geometry": {
        "type": "Polygon",
        "coordinates": [
          [
            [
              73.04059342416576,
              33.6916676632503
            ],
            [
              73.04192111762814,
              33.6916676632503
            ],
            [
              73.04192111762814,
              33.69090665316529
            ],
            [
              73.04059342416576,
              33.69090665316529
            ],
            [
              73.04059342416576,
              33.6916676632503
            ]
          ]
        ]
      }
    },
    {
      "type": "Feature",
      "properties": {
        "timestamp": "2026-05-19T18:36:52.146",
        "raw_image": "raw/uav_raw_20260519_183652_146.jpg",
        "output_image": "outputs/uav_output_20260519_183652_146.jpg",
        "class": "captured_area",
        "altitude": 220.70720000000298,
        "heading": 6.059999999997672,
        "detection_count": 1
      },
      "geometry": {
        "type": "Polygon",
        "coordinates": [
          [
            [
              73.03925733237108,
              33.692412781959604
            ],
            [
              73.04058502583345,
              33.692412781959604
            ],
            [
              73.04058502583345,
              33.69165177847283
            ],
            [
              73.03925733237108,
              33.69165177847283
            ],
            [
              73.03925733237108,
              33.692412781959604
            ]
          ]
        ]
      }
    },
    {
      "type": "Feature",
      "properties": {
        "timestamp": "2026-05-19T18:47:32.842",
        "raw_image": "raw/uav_raw_20260519_184732_842.jpg",
        "output_image": "outputs/uav_output_20260519_184732_842.jpg",
        "class": "captured_area",
        "altitude": 64.46400000000082,
        "heading": 323.4809999999992,
        "detection_count": 16
      },
      "geometry": {
        "type": "Polygon",
        "coordinates": [
          [
            [
              73.04685100594327,
              33.68540987744378
            ],
            [
              73.04926499405667,
              33.68540987744378
            ],
            [
              73.04926499405667,
              33.68402611698744
            ],
            [
              73.04685100594327,
              33.68402611698744
            ],
            [
              73.04685100594327,
              33.68540987744378
            ]
          ]
        ]
      }
    },
    {
      "type": "Feature",
      "properties": {
        "timestamp": "2026-05-19T18:47:45.658",
        "raw_image": "raw/uav_raw_20260519_184745_658.jpg",
        "output_image": "outputs/uav_output_20260519_184745_658.jpg",
        "class": "captured_area",
        "altitude": 64.46400000000082,
        "heading": 323.4809999999992,
        "detection_count": 16
      },
      "geometry": {
        "type": "Polygon",
        "coordinates": [
          [
            [
              73.04685100594327,
              33.68540987744378
            ],
            [
              73.04926499405667,
              33.68540987744378
            ],
            [
              73.04926499405667,
              33.68402611698744
            ],
            [
              73.04685100594327,
              33.68402611698744
            ],
            [
              73.04685100594327,
              33.68540987744378
            ]
          ]
        ]
      }
    },
    {
      "type": "Feature",
      "properties": {
        "timestamp": "2026-05-19T18:48:07.255",
        "raw_image": "raw/uav_raw_20260519_184807_255.jpg",
        "output_image": "outputs/uav_output_20260519_184807_255.jpg",
        "class": "captured_area",
        "altitude": 64.46400000000082,
        "heading": 317.1160000000025,
        "detection_count": 21
      },
      "geometry": {
        "type": "Polygon",
        "coordinates": [
          [
            [
              73.04548054752308,
              33.686494723729574
            ],
            [
              73.04789453563649,
              33.686494723729574
            ],
            [
              73.04789453563649,
              33.68511098073696
            ],
            [
              73.04548054752308,
              33.68511098073696
            ],
            [
              73.04548054752308,
              33.686494723729574
            ]
          ]
        ]
      }
    },
    {
      "type": "Feature",
      "properties": {
        "timestamp": "2026-05-19T18:48:21.207",
        "raw_image": "raw/uav_raw_20260519_184821_207.jpg",
        "output_image": "outputs/uav_output_20260519_184821_207.jpg",
        "class": "captured_area",
        "altitude": 114.38079999999971,
        "heading": 317.1160000000025,
        "detection_count": 21
      },
      "geometry": {
        "type": "Polygon",
        "coordinates": [
          [
            [
              73.04548054752308,
              33.686494723729574
            ],
            [
              73.04789453563649,
              33.686494723729574
            ],
            [
              73.04789453563649,
              33.68511098073696
            ],
            [
              73.04548054752308,
              33.68511098073696
            ],
            [
              73.04548054752308,
              33.686494723729574
            ]
          ]
        ]
      }
    },
    {
      "type": "Feature",
      "properties": {
        "timestamp": "2026-05-19T18:55:23.464",
        "raw_image": "raw/uav_raw_20260519_185523_464.jpg",
        "output_image": "outputs/uav_output_20260519_185523_464.jpg",
        "class": "captured_area",
        "altitude": 450.0,
        "heading": 30.0,
        "detection_count": 0
      },
      "geometry": {
        "type": "Polygon",
        "coordinates": [
          [
            [
              73.0473,
              33.6852
            ],
            [
              73.0488,
              33.6852
            ],
            [
              73.0488,
              33.6842
            ],
            [
              73.0473,
              33.6842
            ],
            [
              73.0473,
              33.6852
            ]
          ]
        ]
      }
    },
    {
      "type": "Feature",
      "properties": {
        "timestamp": "2026-05-19T19:00:50.309",
        "raw_image": "raw/uav_raw_20260519_190050_309.jpg",
        "output_image": "outputs/uav_output_20260519_190050_309.jpg",
        "class": "captured_area",
        "altitude": 20.0,
        "heading": 28.964249999999367,
        "detection_count": 66
      },
      "geometry": {
        "type": "Polygon",
        "coordinates": [
          [
            [
              73.04523244226492,
              33.68662529936814
            ],
            [
              73.04600491846122,
              33.68662529936814
            ],
            [
              73.04600491846122,
              33.68599592320865
            ],
            [
              73.04523244226492,
              33.68599592320865
            ],
            [
              73.04523244226492,
              33.68662529936814
            ]
          ]
        ]
      }
    },
    {
      "type": "Feature",
      "properties": {
        "timestamp": "2026-05-19T19:01:29.598",
        "raw_image": "raw/uav_raw_20260519_190129_598.jpg",
        "output_image": "outputs/uav_output_20260519_190129_598.jpg",
        "class": "captured_area",
        "altitude": 203.4272,
        "heading": 28.964249999999367,
        "detection_count": 61
      },
      "geometry": {
        "type": "Polygon",
        "coordinates": [
          [
            [
              73.04522976005592,
              33.68662529936814
            ],
            [
              73.04600760067022,
              33.68662529936814
            ],
            [
              73.04600760067022,
              33.68599592320865
            ],
            [
              73.04522976005592,
              33.68599592320865
            ],
            [
              73.04522976005592,
              33.68662529936814
            ]
          ]
        ]
      }
    },
    {
      "type": "Feature",
      "properties": {
        "timestamp": "2026-05-19T19:02:26.282",
        "raw_image": "raw/uav_raw_20260519_190226_282.jpg",
        "output_image": "outputs/uav_output_20260519_190226_282.jpg",
        "class": "captured_area",
        "altitude": 250.8895999999974,
        "heading": 28.964249999999367,
        "detection_count": 98
      },
      "geometry": {
        "type": "Polygon",
        "coordinates": [
          [
            [
              73.04514124715843,
              33.68670118128882
            ],
            [
              73.04609611356771,
              33.68670118128882
            ],
            [
              73.04609611356771,
              33.685920040665366
            ],
            [
              73.04514124715843,
              33.685920040665366
            ],
            [
              73.04514124715843,
              33.68670118128882
            ]
          ]
        ]
      }
    },
    {
      "type": "Feature",
      "properties": {
        "timestamp": "2026-05-19T19:02:42.218",
        "raw_image": "raw/uav_raw_20260519_190242_218.jpg",
        "output_image": "outputs/uav_output_20260519_190242_218.jpg",
        "class": "captured_area",
        "altitude": 299.9455999999983,
        "heading": 28.964249999999367,
        "detection_count": 46
      },
      "geometry": {
        "type": "Polygon",
        "coordinates": [
          [
            [
              73.0450473698429,
              33.68677706314253
            ],
            [
              73.04618999088324,
              33.68677706314253
            ],
            [
              73.04618999088324,
              33.68584415805506
            ],
            [
              73.0450473698429,
              33.68584415805506
            ],
            [
              73.0450473698429,
              33.68677706314253
            ]
          ]
        ]
      }
    },
    {
      "type": "Feature",
      "properties": {
        "timestamp": "2026-05-19T19:03:55.339",
        "raw_image": "raw/uav_raw_20260519_190355_339.jpg",
        "output_image": "outputs/uav_output_20260519_190355_339.jpg",
        "class": "captured_area",
        "altitude": 450.0,
        "heading": 30.0,
        "detection_count": 74
      },
      "geometry": {
        "type": "Polygon",
        "coordinates": [
          [
            [
              73.04719969311523,
              33.685416573004744
            ],
            [
              73.04891630688476,
              33.685416573004744
            ],
            [
              73.04891630688476,
              33.68401942131818
            ],
            [
              73.04719969311523,
              33.68401942131818
            ],
            [
              73.04719969311523,
              33.685416573004744
            ]
          ]
        ]
      }
    }
  ]
}